[{"OBJECT_NAME":"STARLINK-31965","OBJECT_ID":"2024-100D","EPOCH":"2026-03-09T05:23:43.313568","MEAN_MOTION":15.27607133,"ECCENTRICITY":0.00018194,"INCLINATION":43.0016,"RA_OF_ASC_NODE":128.2074,"ARG_OF_PERICENTER":279.596,"MEAN_ANOMALY":80.4686,"EPHEMERIS_TYPE":0,"CLASSIFICATION_TYPE":"U","NORAD_CAT_ID":59888,"ELEMENT_SET_NO":999,"REV_AT_EPOCH":10098,"BSTAR":0.00078938859,"MEAN_MOTION_DOT":0.00021542,"MEAN_MOTION_DDOT":0},{"OBJECT_NAME":"TROLL","OBJECT_ID":"2025-009BB","EPOCH":"2026-03-09T05:24:19.835712","MEAN_MOTION":15.28164315,"ECCENTRICITY":0.00018165,"INCLINATION":97.3932,"RA_OF_ASC_NODE":150.7169,"ARG_OF_PERICENTER":59.185,"MEAN_ANOMALY":300.9568,"EPHEMERIS_TYPE":0,"CLASSIFICATION_TYPE":"U","NORAD_CAT_ID":62658,"ELEMENT_SET_NO":999,"REV_AT_EPOCH":11817,"BSTAR":0.00048220305,"MEAN_MOTION_DOT":0.00013174,"MEAN_MOTION_DDOT":0}]
